AO-07
1 07530U 74089B   25357.77219493 -.00000044  00000+0  12923-4 0  9996
2 07530 101.9965   4.1557 0012399 105.8851  67.9354 12.53694443338539
PHASE 3B (AO-10)
1 14129U 83058B   25357.56940186 -.00000187  00000+0  00000+0 0  9997
2 14129  26.0334 249.3278 6064057  66.6610 344.3465  2.05873181291876
UO-11
1 14781U 84021B   25357.46995444  .00001473  00000+0  15774-3 0  9994
2 14781  97.7827 320.3325 0008930  52.2445 307.9580 14.90175627230956
AO-27
1 22825U 93061C   25357.13803634  .00000133  00000+0  67665-4 0  9998
2 22825  98.7130  59.4294 0007353 254.7331 105.3039 14.30880464681829
FO-29
1 24278U 96046B   25357.19815151 -.00000010  00000+0  25929-4 0  9993
2 24278  98.5456 224.9293 0349630 192.8132 166.3947 13.53263070449366
GO-32
1 25397U 98043D   25357.24358954  .00000073  00000+0  51679-4 0  9993
2 25397  98.9932 340.6986 0001725  40.4512 319.6794 14.24379829426285
ISS
1 25544U 98067A   25357.50408698  .00011486  00000+0  21071-3 0  9995
2 25544  51.6323  89.1709 0003169 291.0240  69.0409 15.49754932544520
NO-44
1 26931U 01043C   25357.21372826  .00000177  00000+0  97010-4 0  9997
2 26931  67.0516 339.3917 0007399 269.3959  90.6295 14.31860505265258
SO-50
1 27607U 02058C   25357.19448941  .00001850  00000+0  23822-3 0  9992
2 27607  64.5532 313.2846 0072666 294.6248  64.7300 14.82432796238366
CO-55
1 27844U 03031E   25357.47958531  .00000318  00000+0  15687-3 0  9997
2 27844  98.6763   3.2440 0009204 342.1504  17.9351 14.24187925166667
CO-57
1 27848U 03031J   25356.95929660  .00000280  00000+0  14257-3 0  9994
2 27848  98.6793   2.5844 0009468   2.1176 358.0041 14.23494413166302
RS-22
1 27939U 03042A   25357.85942762  .00001312  00000+0  21241-3 0  9993
2 27939  98.3363 172.3553 0012419 102.8432   5.1152 14.72998736189735
CO-58
1 28895U 05043F   25357.31830978  .00001641  00000+0  26969-3 0  9991
2 28895  98.2731 144.5756 0015031  46.7549 313.4910 14.71937120 75874
CO-65
1 32785U 08021C   25351.68477250  .00005656  00000+0  38073-3 0  9996
2 32785  97.8081 324.8433 0007829 290.5969  69.4418 15.07103756957832
CO-66
1 32791U 08021J   25357.46466628  .00018005  00000+0  71069-3 0  9996
2 32791  97.7454 342.9814 0002674 162.9272 197.2056 15.25595813960435
RS-30
1 32953U 08025A   25357.81661368  .00000054  00000+0  31504-3 0  9992
2 32953  82.5035 104.5347 0018625 336.3807  23.6416 12.43172161797905
SRMSAT
1 37841U 11058D   25357.85471483  .00000415  00000+0  81720-4 0  9991
2 37841  19.9730  40.6820 0011994  75.0703  81.7880 14.11515025733011
ZACUBE-1
1 39417U 13066B   25351.39749824  .00003280  00000+0  27002-3 0  9998
2 39417  97.8056 307.9496 0042001 132.1904 228.2897 14.99124350653477
TRITON-1
1 39427U 13066M   25357.86017516  .00003944  00000+0  48416-3 0  9992
2 39427  97.8328 266.7129 0093540  85.3760 275.8129 14.80547601648139
GOMX-1
1 39430U 13066Q   25357.87100339  .00003574  00000+0  54940-3 0  9991
2 39430  97.6579 204.3010 0129041 280.6015  78.0679 14.68639885644170
LO-74
1 39440U 13066AA  25351.56788106  .00003439  00000+0  33426-3 0  9992
2 39440  97.8708 295.2332 0058016 269.4523  90.0047 14.92015584649893
AO-73
1 39444U 13066AE  25356.82049505  .00008397  00000+0  56776-3 0  9994
2 39444  97.8082 320.2238 0041124  83.1503 277.4400 15.06109786653081
DTUSAT-2
1 40030U 14033W   25351.70002679  .00007073  00000+0  41774-3 0  9997
2 40030  98.0754 333.4459 0009697 125.2587 234.9550 15.11812878625232
EO-80
1 40032U 14033Y   25357.20347058  .00008743  00000+0  51286-3 0  9997
2 40032  98.0651 338.6388 0009729  61.0733 299.1471 15.11982289626043
METEOR-M-2
1 40069U 14037A   25357.87054332 -.00000072  00000+0 -13946-4 0  9995
2 40069  98.4913 335.0284 0005583 174.8599 185.2637 14.21389634594410
LILACSAT-2
1 40908U 15049K   25357.81221201  .00015545  00000+0  33055-3 0  9997
2 40908  97.4897  23.5362 0008394 157.3164 202.8456 15.45043266568618
Horyu-4
1 41340U 16012D   25357.04349295  .00050994  00000+0  82526-3 0  9992
2 41340  30.9930 239.1877 0006752 334.7749  25.2570 15.51506746543151
Lapan A3
1 41603U 16040E   25357.86687547  .00004485  00000+0  14909-3 0  9994
2 41603  97.1431 355.0185 0008715 287.8328  72.1963 15.31638582527966
TechnoSat
1 42829U 17042E   25357.17763740  .00003762  00000+0  27937-3 0  9994
2 42829  97.4057 156.9354 0017449 340.5716  19.4843 15.03489783460246
NOAA 20
1 43011U 17072B   25357.88073693  .00000120  00000+0  66522-4 0  9999
2 43011  98.9630   6.6429 0009242 306.9369  53.0964 14.28655796422329
AO-91
1 43017U 17073E   25357.05591893  .00012381  00000+0  58206-3 0  9993
2 43017  97.4933 223.0189 0159512 214.7834 144.2887 15.09066363438793
S-Net D
1 43186U 18014G   25357.19370708  .00006552  00000+0  35954-3 0  9999
2 43186  97.5489 258.1982 0006741 269.9501  90.0958 15.14473231432103
S-Net B
1 43187U 18014H   25357.53229377  .00006668  00000+0  36598-3 0  9996
2 43187  97.5496 258.5151 0007418 262.2516  97.7874 15.14453373432159
S-Net A
1 43188U 18014J   25357.72193883  .00006151  00000+0  33760-3 0  9995
2 43188  97.5503 258.8814 0007266 261.9211  98.1197 15.14486470432187
S-Net C
1 43189U 18014K   25357.13885846  .00007225  00000+0  39627-3 0  9999
2 43189  97.5520 258.3500 0008775 255.6083 104.4175 15.14443148430648
Ten-Koh
1 43677U 18084G   25357.03861821  .00003131  00000+0  24459-3 0  9993
2 43677  98.0751 177.0768 0008684 356.9360   3.1809 15.01878757389711
PO-101
1 43678U 18084H   25357.79624078  .00004653  00000+0  38412-3 0  9992
2 43678  98.1033 181.7054 0007538  19.4411 340.7097 14.99497106389924
QO-100
1 43700U 18090A   25357.76630865  .00000165  00000+0  00000+0 0  9995
2 43700   0.0161 325.5545 0000962 338.4726  90.1919  1.00270734 25913
MinXSS-2
1 43758U 18099A   25357.18697352  .00026896  00000+0  79090-3 0  9995
2 43758  97.4781  64.6962 0009642 173.4725 186.6645 15.35026390387028
AO-95
1 43770U 18099N   25357.11489980  .00013772  00000+0  60317-3 0  9999
2 43770  97.4652  53.3205 0008326 243.8434 116.1946 15.22109097386394
SNUSat 2
1 43782U 18099AA  25357.79624884  .00008599  00000+0  41989-3 0  9995
2 43782  97.4336  49.0138 0010911 181.8036 178.3160 15.18459914386383
SnugLite
1 43784U 18099AC  25357.09937026  .00013751  00000+0  59573-3 0  9999
2 43784  97.4147  48.4127 0003173 164.7963 195.3370 15.22505481386486
ITASat 1
1 43786U 18099AE  25357.12574114  .00007634  00000+0  39769-3 0  9998
2 43786  97.4305  47.2206 0011959 243.1568 116.8443 15.16217071386200
EAGLET 1
1 43790U 18099AJ  25357.10077925  .00005779  00000+0  34739-3 0  9999
2 43790  97.4504  46.3716 0010411 229.8053 130.2267 15.11206526385722
ESEO
1 43792U 18099AL  25357.52990909  .00002514  00000+0  18829-3 0  9999
2 43792  97.4227  37.2722 0011713 207.7794 152.2808 15.03529437385405
JO-97
1 43803U 18099AX  25357.10381771  .00018012  00000+0  67800-3 0  9990
2 43803  97.4405  54.8879 0006739 164.2075 195.9375 15.27153057386697
Suomi 100
1 43804U 18099AY  25357.16491478  .00014289  00000+0  59907-3 0  9994
2 43804  97.4465  53.5447 0011105 174.1499 185.9870 15.23557733386575
ISAT
1 43879U 18111D   25357.50768484  .00039779  00000+0  91344-3 0  9995
2 43879  97.5917 277.6432 0004594 191.6726 168.4415 15.42586624383901
UWE-4
1 43880U 18111E   25356.73997589  .00027241  00000+0  80571-3 0  9992
2 43880  97.5867 273.5448 0007412 230.6612 129.3975 15.34861743383613
Sparrow
1 43881U 18111F   25356.31020386  .00047780  00000+0  10155-2 0  9999
2 43881  97.6104 280.2099 0001757 258.7614 101.3436 15.44855097383848
Prox-1
1 44339U 19036A   25357.65839398  .00013963  00000+0  15491-2 0  9998
2 44339  23.9942 202.4389 0006371 164.4436 195.6259 14.85454001347291
Taurus 1
1 44530U 19059C   25357.87204834  .00010499  00000+0  17839-2 0  9990
2 44530  98.6233 147.3407 0009076 140.6099 219.5766 14.69319820332878
TO-108
1 44881U 19093C   25357.81009866  .00000921  00000+0  11110-3 0  9995
2 44881  97.7747  69.1937 0012616 307.9436  52.0639 14.86125158325366
FloripaSat 1
1 44885U 19093G   25357.84083194  .00007521  00000+0  58694-3 0  9999
2 44885  97.8031  86.0874 0009435 297.3074  62.7189 15.01404127326318
RS-44
1 44909U 19096E   25357.33406192  .00000031  00000+0  78674-4 0  9990
2 44909  82.5215  96.5694 0217442 195.2809 164.1657 12.79746174279853
SALSAT
1 46495U 20068K   25356.95491751  .00008974  00000+0  34648-3 0  9991
2 46495  97.8789 344.7791 0009827 189.6091 170.4960 15.26486813288440
CSS (TIANHE-1)
1 48274U 21035A   25357.79418811  .00014858  00000+0  18485-3 0  9991
2 48274  41.4685 309.5739 0008049 128.7040 231.4519 15.59610361265751
CUTE
1 49263U 21088D   25357.17376869  .00033707  00000+0  43027-3 0  9990
2 49263  97.4340  80.4938 0004666 222.3548 137.7349 15.59199859234928
TeikyoSat 4
1 49396U 21102B   25357.01525890  .00001899  00000+0  12485-3 0  9998
2 49396  97.3885  28.2283 0012330 171.9535 188.1894 15.08688149226153
Z-Sat
1 49399U 21102E   25357.86250596  .00003500  00000+0  18215-3 0  9990
2 49399  97.3560  33.4708 0018297 134.7737 225.4989 15.16530505226853
KOSEN 1
1 49402U 21102H   25357.07940613  .00009258  00000+0  38621-3 0  9993
2 49402  97.3450  37.7540 0016230 107.7232 252.5778 15.23769554227171
HO-113
1 50466U 21131B   25357.82845105  .00000699  00000+0  23069-3 0  9990
2 50466  98.5050  86.1944 0003042 263.2288  96.8554 14.41126331209859
SNUGLITE 2
1 52899U 22065F   25357.39703169  .00001216  00000+0  24188-3 0  9993
2 52899  98.1933 137.8701 0006975 208.2722 151.8102 14.63864224185276
METEOR-M2-3
1 57166U 23091A   25357.86335235  .00000009  00000+0  23024-4 0  9990
2 57166  98.6363  51.2077 0003310 334.5144  25.5871 14.24027356129560
UmKA 1 (RS40S)
1 57172U 23091G   25357.81467168  .00006705  00000+0  32938-3 0  9995
2 57172  97.5321  52.2313 0013847  17.2322 342.9379 15.18310894137375
CubeBel-2 (EU11S)
1 57175U 23091K   25357.81619417  .00013329  00000+0  54687-3 0  9999
2 57175  97.5318  54.8201 0011259  20.2869 339.8813 15.24306201137544
RS58S MONITOR-3
1 57180U 23091Q   25357.84607928  .00011539  00000+0  48325-3 0  9995
2 57180  97.5347  55.2802 0012781   3.1167 357.0147 15.23634378137557
